0 FENGYUN 1C DEB
1 29989U 99025LP  13283.10242008  .00000195  00000-0  11904-3 0  8976
2 29989 098.9179 320.3506 0126518 296.1468 130.8233 14.13298864347752
0 FENGYUN 1C DEB
1 29989U 99025LP  13286.07933263  .00000190  00000-0  11635-3 0  8993
2 29989 098.9171 323.3186 0126485 287.6385 157.0680 14.13300398348177
0 FENGYUN 1C DEB
1 29989U 99025LP  13287.64479045  .00000152  00000-0  97696-4 0  9003
2 29989 098.9166 324.8793 0126516 283.1666 201.9660 14.13302080348390
0 FENGYUN 1C DEB
1 29989U 99025LP  13288.84695883  .00000164  00000-0  10366-3 0  9018
2 29989 098.9164 326.0778 0126537 279.7367 198.4879 14.13302790348566
0 FENGYUN 1C DEB
1 29989U 99025LP  13289.97953887  .00000190  00000-0  11635-3 0  9024
2 29989 098.9161 327.2067 0126551 276.5099 200.9507 14.13302990348727
0 FENGYUN 1C DEB
1 29989U 99025LP  13291.45356611  .00000264  00000-0  15290-3 0  9036
2 29989 098.9159 328.6760 0126563 272.3005 140.6797 14.13303118348930
0 FENGYUN 1C DEB
1 29989U 99025LP  13292.60595859  .00000302  00000-0  17198-3 0  9046
2 29989 098.9159 329.8246 0126580 269.0070 243.9595 14.13303572349091
0 FENGYUN 1C DEB
1 29989U 99025LP  13293.73238100  .00000260  00000-0  15116-3 0  9056
2 29989 098.9158 330.9472 0126600 265.7866 215.1062 14.13304641349259
0 FENGYUN 1C DEB
1 29989U 99025LP  13295.34930679  .00000165  00000-0  10435-3 0  9069
2 29989 098.9158 332.5587 0126650 261.1701 161.8914 14.13306604349486
